INTELSAT 10 (IS-10)     
1 26766U 01019A   25363.77871851  .00000090  00000+0  00000+0 0  9998
2 26766   8.6686  60.9830 0008287 231.1585 151.9844  0.99071661 43906
INTELSAT 902 (IS-902)   
1 26900U 01039A   25349.54794076 -.00000265  00000+0  00000+0 0  9997
2 26900   5.6536  74.0372 0004502 189.6359 327.9329  1.00270870 88858
INTELSAT 904 (IS-904)   
1 27380U 02007A   25364.46011869 -.00000212  00000+0  00000+0 0  9998
2 27380   6.4976  71.2240 0002422 250.2733 271.8139  1.00271063 50075
DIRECTV 5 (TEMPO 1)     
1 27426U 02023A   25364.53618846 -.00000042  00000+0  00000+0 0  9994
2 27426   4.4463  77.4377 0003693 212.3005 252.3880  1.00271328 86436
INTELSAT 905 (IS-905)   
1 27438U 02027A   25357.23712243  .00000112  00000+0  00000+0 0  9993
2 27438   6.3102  71.9349 0002749 206.5226 121.7385  1.00273243 49592
GALAXY 3C (G-3C)        
1 27445U 02030A   25364.44686457 -.00000136  00000+0  00000+0 0  9990
2 27445   3.3065  80.3088 0001010 100.5915 344.2425  1.00270692 44808
INTELSAT 906 (IS-906)   
1 27513U 02041A   25364.19371049  .00000028  00000+0  00000+0 0  9997
2 27513   5.3740  75.0245 0006115 206.2264 311.4937  1.00271725 85339
GALAXY 13 (HORIZONS-1)  
1 27954U 03044A   25364.57928612  .00000151  00000+0  00000+0 0  9993
2 27954   0.9829  86.2472 0002244 194.4313 237.1291  1.00274331 44883
INTELSAT 10-02          
1 28358U 04022A   25364.60875299  .00000008  00000+0  00000+0 0  9996
2 28358   0.0130  66.0668 0001572 243.1536   8.2538  1.00269965 78866
XM-3 (RHYTHM)           
1 28626U 05008A   25364.61473302 -.00000002  00000+0  00000+0 0  9994
2 28626   0.2195  82.4649 0002504 267.4439   0.0052  0.98951980 40923
DIRECTV 8               
1 28659U 05019A   25364.58535282  .00000020  00000+0  00000+0 0  9993
2 28659   0.0124 317.1685 0003444 334.8016 258.9894  1.00271977 75382
GALAXY 28 (G-28)        
1 28702U 05022A   25364.59384623 -.00000252  00000+0  00000+0 0  9996
2 28702   2.8654  81.0752 0003214 165.4542 350.3665  1.00598384 50287
GALAXY 16 (G-16)        
1 29236U 06023A   25364.58933953 -.00000108  00000+0  00000+0 0  9996
2 29236   0.0428 174.1189 0002915 111.0262 287.2732  1.00270713 71289
DIRECTV 9S              
1 29494U 06043A   25364.58890619 -.00000096  00000+0  00000+0 0  9991
2 29494   1.9850  83.0108 0003326 202.0868 284.9716  1.00270805 49691
GALAXY 17 (G-17)        
1 31307U 07016B   25364.54590355 -.00000189  00000+0  00000+0 0  9991
2 31307   2.5436  82.0740 0005714 178.2652 310.4237  1.00270520 68118
DIRECTV 10              
1 31862U 07032A   25364.50739149 -.00000085  00000+0  00000+0 0  9992
2 31862   0.0194 192.3614 0000778  61.5023 285.1926  1.00276558 43904
INTELSAT 11 (IS-11)     
1 32253U 07044B   25364.55114142 -.00000269  00000+0  00000+0 0  9999
2 32253   3.1253  80.7698 0008749 174.2277 190.0972  0.99052209 66788
HORIZONS-2              
1 32388U 07063B   25364.55000955 -.00000236  00000+0  00000+0 0  9999
2 32388   2.1665  82.7570 0004861 197.5154 303.1677  1.00271990 66127
DIRECTV 11              
1 32729U 08013A   25364.50183640 -.00000104  00000+0  00000+0 0  9996
2 32729   0.0422 207.4627 0001503 314.0806  19.1067  1.00256100 43907
GALAXY 18 (G-18)        
1 32951U 08024A   25364.58457282  .00000044  00000+0  00000+0 0  9991
2 32951   0.0038  96.3586 0003237 180.2975 270.0449  1.00270492 44163
INTELSAT 25 (IS-25)     
1 33153U 08034A   25364.46003203 -.00000207  00000+0  00000+0 0  9996
2 33153   2.2720  82.4465 0005184 194.7951 316.0085  1.00269941 64008
GALAXY 19 (G-19)        
1 33376U 08045A   25364.58977286 -.00000120  00000+0  00000+0 0  9993
2 33376   0.0497 263.9507 0003137  24.6661 285.9735  1.00271438 63212
FM-5                    
1 35493U 09034A   25364.59167954 -.00000181  00000+0  00000+0 0  9995
2 35493   0.0230 291.5132 0001074 249.3397  45.2803  1.00269643 44958
INTELSAT 14 (IS-14)     
1 36097U 09064A   25364.45734534 -.00000253  00000+0  00000+0 0  9998
2 36097   0.0099 337.6384 0003301 323.8165 277.3318  1.00288884 58917
INTELSAT 15 (IS-15)     
1 36106U 09067A   25364.62582641 -.00000167  00000+0  00000+0 0  9995
2 36106   0.0292  70.5606 0002527 223.1821 116.0237  1.00271941 39535
DIRECTV 12              
1 36131U 09075A   25364.58864618 -.00000085  00000+0  00000+0 0  9993
2 36131   0.0048 114.8359 0000551 201.8302 251.8031  1.00270293 44862
INTELSAT 16 (IS-16)     
1 36397U 10006A   25364.54918902 -.00000226  00000+0  00000+0 0  9992
2 36397   0.0107  13.0975 0002186 265.2225 302.4247  1.00269450 57960
XM-5                    
1 37185U 10053A   25364.58613284 -.00000004  00000+0  00000+0 0  9993
2 37185   0.0690 268.8902 0002108 251.7629  34.4303  1.00269635 55794
INTELSAT 17 (IS-17)     
1 37238U 10065B   25364.60689287  .00000000  00000+0  00000+0 0  9999
2 37238   0.0429  79.3416 0003143 221.0821  83.3103  1.00260592 51556
INTELSAT 28 (IS-28)     
1 37392U 11016A   25364.46003203 -.00000207  00000+0  00000+0 0  9999
2 37392   1.3691  84.8483 0004094 191.5217 316.6780  1.00271450 51595
INTELSAT 18 (IS-18)     
1 37834U 11056A   25364.58516765  .00000072  00000+0  00000+0 0  9998
2 37834   0.0005 358.0849 0002063 278.6969 213.1384  1.00271077 52124
INTELSAT 22 (IS-22)     
1 38098U 12011A   25364.62322640  .00000000  00000+0  00000+0 0  9996
2 38098   0.0450  63.8347 0001996 244.2833  87.6368  1.00270986  5490
INTELSAT 19 (IS-19)     
1 38356U 12030A   25364.54003072 -.00000038  00000+0  00000+0 0  9992
2 38356   0.0099   9.3826 0003146 267.0293 183.2341  1.00270075 48765
INTELSAT 20 (IS-20)     
1 38740U 12043A   25364.55120595 -.00000005  00000+0  00000+0 0  9998
2 38740   0.0153  68.4227 0001868 108.1080 189.6367  1.00270864 49059
INTELSAT 21 (IS-21)     
1 38749U 12045A   25364.52615912 -.00000266  00000+0  00000+0 0  9997
2 38749   0.0038  81.5685 0001998 195.1187 313.9459  1.00269725 48835
INTELSAT 23 (IS-23)     
1 38867U 12057A   25364.45578534 -.00000266  00000+0  00000+0 0  9991
2 38867   0.0153  58.1620 0001292 254.1180 257.9524  1.00266422 48267
FM-6                    
1 39360U 13058A   25364.53807723  .00000002  00000+0  00000+0 0  9993
2 39360   0.0159  70.3637 0002894 107.5148 358.8873  1.00269587 44382
INTELSAT 30 (IS-30)     
1 40271U 14062A   25364.59011953 -.00000132  00000+0  00000+0 0  9995
2 40271   0.0125  28.8535 0001160  64.6262 123.1811  1.00269818  5107
DIRECTV 14              
1 40333U 14078B   25364.58933953 -.00000107  00000+0  00000+0 0  9995
2 40333   0.0087 355.4501 0000462 257.4373 319.3192  1.00276212 40357
DIRECTV 15              
1 40663U 15026A   25364.58855951  .00000000  00000+0  00000+0 0  9997
2 40663   0.0281  28.6635 0000515 156.3968  23.2133  1.00270811 38770
SKY MEXICO-1            
1 40664U 15026B   25364.54859627 -.00000215  00000+0  00000+0 0  9997
2 40664   0.0192 303.0872 0002735 349.5824 285.2903  1.00270156 38764
INTELSAT 34 (IS-34)     
1 40874U 15039A   25364.45535199 -.00000266  00000+0  00000+0 0  9995
2 40874   0.0151 312.7501 0000719 244.8543   9.9744  1.00270269 37930
INTELSAT 31 (IS-31)     
1 41581U 16035A   25364.59011953 -.00000132  00000+0  00000+0 0  9992
2 41581   0.0252 271.3605 0002202 304.0434   1.2480  1.00269371 34997
INTELSAT 36 (IS-36)     
1 41747U 16053A   25364.12325005 -.00000004  00000+0  00000+0 0  9999
2 41747   0.0102   4.8771 0001241 305.3599 261.4466  1.00270426 34252
INTELSAT 32E (IS-32E)   
1 41945U 17007B   25364.52893248 -.00000250  00000+0  00000+0 0  9995
2 41945   0.0232  70.5856 0000510 279.4559 256.4151  1.00269443 32536
INTELSAT 35E (IS-35E)   
1 42818U 17041A   25364.45942536  .00000000  00000+0  00000+0 0  9992
2 42818   0.0271  32.5649 0002345 247.9898 309.4956  1.00270559 31127
INTELSAT 37E (IS-37E)   
1 42950U 17059A   25364.60528630  .00000000  00000+0  00000+0 0  9990
2 42950   0.0266  24.8805 0003389 244.3595  29.9490  1.00269580 30375
AZERSPACE 2 (IS-38)     
1 43632U 18074A   25364.61793970  .00000155  00000+0  00000+0 0  9999
2 43632   0.0042  61.8306 0001688 219.8373  85.1964  1.00270580 26752
HORIZONS-3E             
1 43633U 18074B   25364.54003072 -.00000011  00000+0  00000+0 0  9991
2 43633   0.0520 197.6153 0000684 112.5820 152.4463  1.00270655 26657
AT&T T-16               
1 44333U 19034A   25364.58899286 -.00000096  00000+0  00000+0 0  9993
2 44333   0.0209  67.9543 0000690  96.4058  46.0773  1.00268104 23948
INTELSAT 39 (IS-39)     
1 44476U 19049B   25364.47857881  .00000053  00000+0  00000+0 0  9992
2 44476   0.0124 324.8300 0000979 201.4266 167.1454  1.00270973 23439
GALAXY 30 (G-30)        
1 46114U 20056C   25364.58422616  .00000056  00000+0  00000+0 0  9992
2 46114   0.0173  22.5183 0002418 255.8213 266.2392  1.00271002 19600
GALAXY 33 (G-33)        
1 54026U 22128A   25364.58257948  .00000098  00000+0  00000+0 0  9995
2 54026   0.0150  13.2489 0002022 262.8438 259.9063  1.00272264 12057
GALAXY 34 (G-34)        
1 54027U 22128B   25364.58344615  .00000000  00000+0  00000+0 0  9997
2 54027   0.0214   2.5863 0001692 267.6627 270.1282  1.00272622 12226
GALAXY 31 (G-31)        
1 54243U 22153A   25364.58500616  .00000000  00000+0  00000+0 0  9990
2 54243   0.0220  50.1774 0001992 239.4322 259.2562  1.00271934  5445
GALAXY 32 (G-32)        
1 54244U 22153B   25364.59089954 -.00000155  00000+0  00000+0 0  9991
2 54244   0.0072   1.9651 0002342 310.9377 268.0928  1.00270455 11453
GALAXY 35 (G-35)        
1 54741U 22170A   25364.59055287  .00000000  00000+0  00000+0 0  9992
2 54741   0.0198  39.3649 0002750 242.7479 296.6442  1.00268933 11203
GALAXY 36 (G-36)        
1 54742U 22170B   25364.54435126 -.00000166  00000+0  00000+0 0  9996
2 54742   0.0127 281.4194 0000656  43.0877 241.6903  1.00270343 11084
GALAXY 37 (G-37)        
1 57493U 23112A   25364.58379281  .00000067  00000+0  00000+0 0  9991
2 57493   0.0129 316.0785 0002415 326.9590 259.3988  1.00272617  8859
